STARLINK-36433          
1 67501U 26012J   26035.50002314 -.01918239  00000+0 -10685-1 0  9996
2 67501  42.9959 144.8572 0001317 255.8358  22.1336 15.81543244  3735
STARLINK-36554          
1 67502U 26012K   26035.19922448  .00310471  00000+0  16298-2 0  9999
2 67502  42.9954 146.7031 0004802 241.1583 118.8805 15.79080584  2601
STARLINK-36552          
1 67503U 26012L   26035.50002314 -.01664991  00000+0 -89432-2 0  9998
2 67503  42.9963 144.8348 0001281 247.9752  38.9006 15.82378684  3737
STARLINK-36512          
1 67504U 26012M   26035.50002314 -.01941539  00000+0 -11346-1 0  9993
2 67504  42.9959 144.8234 0001472 277.8717  13.4408 15.80559523  3737
STARLINK-36545          
1 67505U 26012N   26035.50002314 -.01953552  00000+0 -11125-1 0  9997
2 67505  42.9964 144.8140 0001263 259.2018  35.7568 15.81133480  3731
STARLINK-36553          
1 67506U 26012P   26035.50002314 -.01765838  00000+0 -93574-2 0  9995
2 67506  42.9965 144.8029 0001474 267.8050  31.8146 15.82344155  3737
STARLINK-36521          
1 67507U 26012Q   26035.50002314 -.01822904  00000+0 -97053-2 0  9990
2 67507  42.9961 144.7887 0001535 247.6958  57.3634 15.82336759  3732
STARLINK-36526          
1 67508U 26012R   26035.50002314 -.01897380  00000+0 -10153-1 0  9996
2 67508  42.9962 144.7743 0001349 254.1201  56.6593 15.82355356  3732
STARLINK-36541          
1 67509U 26012S   26035.50002314 -.02517129  00000+0 -25895-1 0  9997
2 67509  42.9993 145.0209 0000996 267.3862 304.9702 15.67444068  3670
STARLINK-36549          
1 67510U 26012T   26035.50002314 -.01963717  00000+0 -11319-1 0  9992
2 67510  42.9956 144.5486 0001377 272.0813 127.3852 15.80892429  3671
STARLINK-36540          
1 67511U 26012U   26035.50002314 -.02465136  00000+0 -25132-1 0  9994
2 67511  42.9988 145.0025 0001091 274.9732 304.8502 15.67586737  3734
STARLINK-36538          
1 67512U 26012V   26035.50002314 -.01943183  00000+0 -12703-1 0  9997
2 67512  42.9976 144.7580 0001508 273.8460  43.3946 15.78132486  3730
