CCSDS_OMM_VERS = 2.0
CREATION_DATE  = 
ORIGINATOR     = 

OBJECT_NAME    = STARLINK-36433
OBJECT_ID      = 2026-012J
CENTER_NAME    = EARTH
REF_FRAME      = TEME
TIME_SYSTEM    = UTC
MEAN_ELEMENT_THEORY = SGP/SGP4

EPOCH          = 2026-02-04T12:00:01.999296
MEAN_MOTION    = 15.81543244
ECCENTRICITY   = .0001317
INCLINATION    = 42.9959
RA_OF_ASC_NODE = 144.8572
ARG_OF_PERICENTER = 255.8358
MEAN_ANOMALY   = 22.1336

EPHEMERIS_TYPE = 0
CLASSIFICATION_TYPE = U
NORAD_CAT_ID   = 67501
ELEMENT_SET_NO = 999
REV_AT_EPOCH   = 373
BSTAR          = -.10685E-1
MEAN_MOTION_DOT = -.1918239E-1
MEAN_MOTION_DDOT = 0

CCSDS_OMM_VERS = 2.0
CREATION_DATE  = 
ORIGINATOR     = 

OBJECT_NAME    = STARLINK-36554
OBJECT_ID      = 2026-012K
CENTER_NAME    = EARTH
REF_FRAME      = TEME
TIME_SYSTEM    = UTC
MEAN_ELEMENT_THEORY = SGP/SGP4

EPOCH          = 2026-02-04T04:46:52.995072
MEAN_MOTION    = 15.79080584
ECCENTRICITY   = .0004802
INCLINATION    = 42.9954
RA_OF_ASC_NODE = 146.7031
ARG_OF_PERICENTER = 241.1583
MEAN_ANOMALY   = 118.8805

EPHEMERIS_TYPE = 0
CLASSIFICATION_TYPE = U
NORAD_CAT_ID   = 67502
ELEMENT_SET_NO = 999
REV_AT_EPOCH   = 260
BSTAR          = .16298E-2
MEAN_MOTION_DOT = .310471E-2
MEAN_MOTION_DDOT = 0

CCSDS_OMM_VERS = 2.0
CREATION_DATE  = 
ORIGINATOR     = 

OBJECT_NAME    = STARLINK-36552
OBJECT_ID      = 2026-012L
CENTER_NAME    = EARTH
REF_FRAME      = TEME
TIME_SYSTEM    = UTC
MEAN_ELEMENT_THEORY = SGP/SGP4

EPOCH          = 2026-02-04T12:00:01.999296
MEAN_MOTION    = 15.82378684
ECCENTRICITY   = .0001281
INCLINATION    = 42.9963
RA_OF_ASC_NODE = 144.8348
ARG_OF_PERICENTER = 247.9752
MEAN_ANOMALY   = 38.9006

EPHEMERIS_TYPE = 0
CLASSIFICATION_TYPE = U
NORAD_CAT_ID   = 67503
ELEMENT_SET_NO = 999
REV_AT_EPOCH   = 373
BSTAR          = -.89432E-2
MEAN_MOTION_DOT = -.1664991E-1
MEAN_MOTION_DDOT = 0

CCSDS_OMM_VERS = 2.0
CREATION_DATE  = 
ORIGINATOR     = 

OBJECT_NAME    = STARLINK-36512
OBJECT_ID      = 2026-012M
CENTER_NAME    = EARTH
REF_FRAME      = TEME
TIME_SYSTEM    = UTC
MEAN_ELEMENT_THEORY = SGP/SGP4

EPOCH          = 2026-02-04T12:00:01.999296
MEAN_MOTION    = 15.80559523
ECCENTRICITY   = .0001472
INCLINATION    = 42.9959
RA_OF_ASC_NODE = 144.8234
ARG_OF_PERICENTER = 277.8717
MEAN_ANOMALY   = 13.4408

EPHEMERIS_TYPE = 0
CLASSIFICATION_TYPE = U
NORAD_CAT_ID   = 67504
ELEMENT_SET_NO = 999
REV_AT_EPOCH   = 373
BSTAR          = -.11346E-1
MEAN_MOTION_DOT = -.1941539E-1
MEAN_MOTION_DDOT = 0

CCSDS_OMM_VERS = 2.0
CREATION_DATE  = 
ORIGINATOR     = 

OBJECT_NAME    = STARLINK-36545
OBJECT_ID      = 2026-012N
CENTER_NAME    = EARTH
REF_FRAME      = TEME
TIME_SYSTEM    = UTC
MEAN_ELEMENT_THEORY = SGP/SGP4

EPOCH          = 2026-02-04T12:00:01.999296
MEAN_MOTION    = 15.81133480
ECCENTRICITY   = .0001263
INCLINATION    = 42.9964
RA_OF_ASC_NODE = 144.8140
ARG_OF_PERICENTER = 259.2018
MEAN_ANOMALY   = 35.7568

EPHEMERIS_TYPE = 0
CLASSIFICATION_TYPE = U
NORAD_CAT_ID   = 67505
ELEMENT_SET_NO = 999
REV_AT_EPOCH   = 373
BSTAR          = -.11125E-1
MEAN_MOTION_DOT = -.1953552E-1
MEAN_MOTION_DDOT = 0

CCSDS_OMM_VERS = 2.0
CREATION_DATE  = 
ORIGINATOR     = 

OBJECT_NAME    = STARLINK-36553
OBJECT_ID      = 2026-012P
CENTER_NAME    = EARTH
REF_FRAME      = TEME
TIME_SYSTEM    = UTC
MEAN_ELEMENT_THEORY = SGP/SGP4

EPOCH          = 2026-02-04T12:00:01.999296
MEAN_MOTION    = 15.82344155
ECCENTRICITY   = .0001474
INCLINATION    = 42.9965
RA_OF_ASC_NODE = 144.8029
ARG_OF_PERICENTER = 267.8050
MEAN_ANOMALY   = 31.8146

EPHEMERIS_TYPE = 0
CLASSIFICATION_TYPE = U
NORAD_CAT_ID   = 67506
ELEMENT_SET_NO = 999
REV_AT_EPOCH   = 373
BSTAR          = -.93574E-2
MEAN_MOTION_DOT = -.1765838E-1
MEAN_MOTION_DDOT = 0

CCSDS_OMM_VERS = 2.0
CREATION_DATE  = 
ORIGINATOR     = 

OBJECT_NAME    = STARLINK-36521
OBJECT_ID      = 2026-012Q
CENTER_NAME    = EARTH
REF_FRAME      = TEME
TIME_SYSTEM    = UTC
MEAN_ELEMENT_THEORY = SGP/SGP4

EPOCH          = 2026-02-04T12:00:01.999296
MEAN_MOTION    = 15.82336759
ECCENTRICITY   = .0001535
INCLINATION    = 42.9961
RA_OF_ASC_NODE = 144.7887
ARG_OF_PERICENTER = 247.6958
MEAN_ANOMALY   = 57.3634

EPHEMERIS_TYPE = 0
CLASSIFICATION_TYPE = U
NORAD_CAT_ID   = 67507
ELEMENT_SET_NO = 999
REV_AT_EPOCH   = 373
BSTAR          = -.97053E-2
MEAN_MOTION_DOT = -.1822904E-1
MEAN_MOTION_DDOT = 0

CCSDS_OMM_VERS = 2.0
CREATION_DATE  = 
ORIGINATOR     = 

OBJECT_NAME    = STARLINK-36526
OBJECT_ID      = 2026-012R
CENTER_NAME    = EARTH
REF_FRAME      = TEME
TIME_SYSTEM    = UTC
MEAN_ELEMENT_THEORY = SGP/SGP4

EPOCH          = 2026-02-04T12:00:01.999296
MEAN_MOTION    = 15.82355356
ECCENTRICITY   = .0001349
INCLINATION    = 42.9962
RA_OF_ASC_NODE = 144.7743
ARG_OF_PERICENTER = 254.1201
MEAN_ANOMALY   = 56.6593

EPHEMERIS_TYPE = 0
CLASSIFICATION_TYPE = U
NORAD_CAT_ID   = 67508
ELEMENT_SET_NO = 999
REV_AT_EPOCH   = 373
BSTAR          = -.10153E-1
MEAN_MOTION_DOT = -.189738E-1
MEAN_MOTION_DDOT = 0

CCSDS_OMM_VERS = 2.0
CREATION_DATE  = 
ORIGINATOR     = 

OBJECT_NAME    = STARLINK-36541
OBJECT_ID      = 2026-012S
CENTER_NAME    = EARTH
REF_FRAME      = TEME
TIME_SYSTEM    = UTC
MEAN_ELEMENT_THEORY = SGP/SGP4

EPOCH          = 2026-02-04T12:00:01.999296
MEAN_MOTION    = 15.67444068
ECCENTRICITY   = .0000996
INCLINATION    = 42.9993
RA_OF_ASC_NODE = 145.0209
ARG_OF_PERICENTER = 267.3862
MEAN_ANOMALY   = 304.9702

EPHEMERIS_TYPE = 0
CLASSIFICATION_TYPE = U
NORAD_CAT_ID   = 67509
ELEMENT_SET_NO = 999
REV_AT_EPOCH   = 367
BSTAR          = -.25895E-1
MEAN_MOTION_DOT = -.2517129E-1
MEAN_MOTION_DDOT = 0

CCSDS_OMM_VERS = 2.0
CREATION_DATE  = 
ORIGINATOR     = 

OBJECT_NAME    = STARLINK-36549
OBJECT_ID      = 2026-012T
CENTER_NAME    = EARTH
REF_FRAME      = TEME
TIME_SYSTEM    = UTC
MEAN_ELEMENT_THEORY = SGP/SGP4

EPOCH          = 2026-02-04T12:00:01.999296
MEAN_MOTION    = 15.80892429
ECCENTRICITY   = .0001377
INCLINATION    = 42.9956
RA_OF_ASC_NODE = 144.5486
ARG_OF_PERICENTER = 272.0813
MEAN_ANOMALY   = 127.3852

EPHEMERIS_TYPE = 0
CLASSIFICATION_TYPE = U
NORAD_CAT_ID   = 67510
ELEMENT_SET_NO = 999
REV_AT_EPOCH   = 367
BSTAR          = -.11319E-1
MEAN_MOTION_DOT = -.1963717E-1
MEAN_MOTION_DDOT = 0

CCSDS_OMM_VERS = 2.0
CREATION_DATE  = 
ORIGINATOR     = 

OBJECT_NAME    = STARLINK-36540
OBJECT_ID      = 2026-012U
CENTER_NAME    = EARTH
REF_FRAME      = TEME
TIME_SYSTEM    = UTC
MEAN_ELEMENT_THEORY = SGP/SGP4

EPOCH          = 2026-02-04T12:00:01.999296
MEAN_MOTION    = 15.67586737
ECCENTRICITY   = .0001091
INCLINATION    = 42.9988
RA_OF_ASC_NODE = 145.0025
ARG_OF_PERICENTER = 274.9732
MEAN_ANOMALY   = 304.8502

EPHEMERIS_TYPE = 0
CLASSIFICATION_TYPE = U
NORAD_CAT_ID   = 67511
ELEMENT_SET_NO = 999
REV_AT_EPOCH   = 373
BSTAR          = -.25132E-1
MEAN_MOTION_DOT = -.2465136E-1
MEAN_MOTION_DDOT = 0

CCSDS_OMM_VERS = 2.0
CREATION_DATE  = 
ORIGINATOR     = 

OBJECT_NAME    = STARLINK-36538
OBJECT_ID      = 2026-012V
CENTER_NAME    = EARTH
REF_FRAME      = TEME
TIME_SYSTEM    = UTC
MEAN_ELEMENT_THEORY = SGP/SGP4

EPOCH          = 2026-02-04T12:00:01.999296
MEAN_MOTION    = 15.78132486
ECCENTRICITY   = .0001508
INCLINATION    = 42.9976
RA_OF_ASC_NODE = 144.7580
ARG_OF_PERICENTER = 273.8460
MEAN_ANOMALY   = 43.3946

EPHEMERIS_TYPE = 0
CLASSIFICATION_TYPE = U
NORAD_CAT_ID   = 67512
ELEMENT_SET_NO = 999
REV_AT_EPOCH   = 373
BSTAR          = -.12703E-1
MEAN_MOTION_DOT = -.1943183E-1
MEAN_MOTION_DDOT = 0

